0 FENGYUN 1C DEB
1 31772U 99025CFX 13280.94864697  .00000822  00000-0  54462-3 0  6748
2 31772 098.4062 100.3745 0167419 064.2256 297.5614 13.97270372324222
0 FENGYUN 1C DEB
1 31772U 99025CFX 13280.97823698  .00000765  00000-0  50823-3 0  6751
2 31772 098.4066 100.4074 0167627 063.0224 087.5541 13.97277177324232
0 FENGYUN 1C DEB
1 31772U 99025CFX 13285.96111410  .00001041  00000-0  68323-3 0  6760
2 31772 098.4071 104.9676 0167555 049.0622 312.5180 13.97287671324938
0 FENGYUN 1C DEB
1 31772U 99025CFX 13292.00723775  .00001247  00000-0  81399-3 0  6773
2 31772 098.4060 110.5079 0167316 032.2933 125.9364 13.97300637325771
